<?xml version="1.0" encoding="UTF-8"?>
<kml xmlns="http://www.opengis.net/kml/2.2">
<Document>
  <name>Bierwandern Kreuzberg – Sa 19.09.2026</name>
  <description>Nummern folgen dem Tagesablauf, nicht der Geografie. Stand 18.09.2026.</description>

  <Style id="own"><IconStyle><scale>1.1</scale>
    <Icon><href>http://maps.google.com/mapfiles/kml/paddle/grn-blank.png</href></Icon></IconStyle></Style>
  <Style id="off"><IconStyle><scale>1.0</scale>
    <Icon><href>http://maps.google.com/mapfiles/kml/paddle/ylw-blank.png</href></Icon></IconStyle></Style>
  <Style id="guest"><IconStyle><scale>1.0</scale>
    <Icon><href>http://maps.google.com/mapfiles/kml/paddle/wht-blank.png</href></Icon></IconStyle></Style>
  <Style id="shut"><IconStyle><scale>1.0</scale>
    <Icon><href>http://maps.google.com/mapfiles/kml/paddle/red-blank.png</href></Icon></IconStyle></Style>
  <Style id="transit"><IconStyle><scale>1.0</scale>
    <Icon><href>http://maps.google.com/mapfiles/kml/shapes/bus.png</href></Icon></IconStyle></Style>
  <Style id="fork"><IconStyle><scale>1.3</scale>
    <Icon><href>http://maps.google.com/mapfiles/kml/paddle/purple-stars.png</href></Icon></IconStyle></Style>
  <Style id="route"><LineStyle><color>ff3ca6e0</color><width>5</width></LineStyle></Style>
  <Style id="spur"><LineStyle><color>ff2dc65a</color><width>4</width></LineStyle></Style>

  <Folder><name>1 · Ankunft und Hallerndorf, ab 11:03</name>
    <Placemark><styleUrl>#own</styleUrl><name>1 · Dorfkeller Lieberth — SAMSTAGS ERST AB 15 UHR</name>
      <description><![CDATA[<b>Lieberth</b>, eigene Brauerei. Liegt direkt an der Bushaltestelle
Kellerberg, wo ihr um 11:03 aussteigt — <b>hat um diese Zeit aber noch zu.</b><br>
<b>Sa 15:00–22:00</b> (Saison Mitte April–Ende September, Ruhetag Mo und Mi).
Vormittags also nichts: direkt zum Kreuzberg hoch.<br>
Kreuzbergstr. 17 · 09545 4437373]]></description>
      <Point><coordinates>10.9786995,49.7572742,0</coordinates></Point></Placemark>
    <Placemark><styleUrl>#own</styleUrl><name>2 · Brauereigaststätte Rittmayer — ZEITEN UNKLAR, anrufen</name>
      <description><![CDATA[<b>Rittmayer</b>, eigene Brauerei. Zehn Minuten weiter im Ort.<br>
<b>Widerspruch:</b> Brauerei-Website nennt <b>Sa/So 10–22</b>, der von der Wirtin gepflegte
Google-Eintrag dagegen <b>Sa 16:30–22:30</b>. Vorher anrufen — davon hängt ab, ob der Vormittag
im Ort oder direkt am Berg stattfindet. Warme Küche.<br>
Trailsdorfer Str. 4 · 09545 509214]]></description>
      <Point><coordinates>10.9827175,49.7597757,0</coordinates></Point></Placemark>
  </Folder>

  <Folder><name>2 · Am Kreuzberg, 13:05–15:00</name>
    <Placemark><styleUrl>#own</styleUrl><name>3 · Brauhaus am Kreuzberg (Friedels Keller)</name>
      <description><![CDATA[<b>Friedel-Bier</b>, hauseigene Brauerei der Familie Friedel-Winkelmann.
Bis zu zehn Biere vom Fass, dazu Craft- und holzfassgereifte Biere.<br>
<b>Sa ab 11</b> (Herbstsaison 14.09.–11.10., Fr–So)<br>
Kreuzberg 1 · 09545 4736]]></description>
      <Point><coordinates>10.9554812,49.7590213,0</coordinates></Point></Placemark>
    <Placemark><styleUrl>#own</styleUrl><name>4 · Lieberth's Keller am Kreuzberg</name>
      <description><![CDATA[<b>Lieberth</b>, Hallerndorf<br>
<b>Sa ab 11</b> — nur bei schönem Wetter (Prognose: trocken, sonnig, 20 Grad)<br>
Kreuzberg 2 · 09545 70746]]></description>
      <Point><coordinates>10.9548434,49.7593182,0</coordinates></Point></Placemark>
    <Placemark><styleUrl>#own</styleUrl><name>5 · Rittmayer-Keller am Kreuzberg</name>
      <description><![CDATA[<b>Rittmayer Landbier</b>. Oberster der drei Keller.<br>
<b>Sa 11–21</b> — bei Regen zu<br>
Kreuzberg 3 · 0151 58559325]]></description>
      <Point><coordinates>10.954413,49.759331,0</coordinates></Point></Placemark>
  </Folder>

  <Folder><name>3 · Abstecher Stiebarlimbach, 15:15–16:15</name>
    <Placemark><styleUrl>#own</styleUrl><name>6 · Bierkeller Roppelt — 14 Min vom Kreuzberg</name>
      <description><![CDATA[<b>Stiebarlimbacher Kellerbier</b>, Brauerei Roppelt. Am Waldrand.<br>
<b>Sa ab 11</b> — Ruhetag Do und So, Mi laut Betrieb unklar, bei schlechtem Wetter zu.<br>
1,0 km vom Kreuzberg, danach denselben Weg zurück.
Der Brauerei-Gasthof im Ort bleibt zu (Kellersaison bis Ende September).<br>
Stiebarlimbach 9 · 09195 7263]]></description>
      <Point><coordinates>10.9473726,49.7554997,0</coordinates></Point></Placemark>
  </Folder>

  <Folder><name>4 · Abend in Buttenheim</name>
    <Placemark><styleUrl>#own</styleUrl><name>7 · Löwenbräukeller Buttenheim</name>
      <description><![CDATA[<b>Löwenbräu Buttenheim</b> (Johann Modschiedler), eigene Brauerei<br>
<b>Sa 11–22</b>, Küche 11–14 und 16:30–20:30 · <b>nur Barzahlung</b><br>
<b>VORBEHALT:</b> Die Website nennt einen Herbst-Betriebsurlaub ohne Datum.
<b>Vorher anrufen: 09545 509346.</b><br>
Rund 1,8 km östlich des Bahnhofs.<br>
Eremitage 3]]></description>
      <Point><coordinates>11.0334053,49.7996483,0</coordinates></Point></Placemark>
    <Placemark><styleUrl>#own</styleUrl><name>8 · St. GeorgenBräu Bierkeller</name>
      <description><![CDATA[<b>St. GeorgenBräu</b>, Familienbrauerei seit 1624<br>
<b>Sa 11:00–22:00</b> — Saison Ende April bis Mitte Oktober, nur bei schönem Wetter.<br>
Rund 1,8 km östlich des Bahnhofs. Kellerstraße · 0151 18020990]]></description>
      <Point><coordinates>11.0368917,49.8000755,0</coordinates></Point></Placemark>
    <Placemark><styleUrl>#own</styleUrl><name>9 · Brauerei-Gasthof Löwenbräu</name>
      <description><![CDATA[<b>Löwenbräu Buttenheim</b>, der Gasthof zur Brauerei<br>
<b>Sa 10–22</b>, warme Küche 11:30–14 und 16:30–19:30.
Mit rund 1,3 km der nächstgelegene der drei.<br>
Marktstraße 8 · 09545 332]]></description>
      <Point><coordinates>11.0314479,49.8017009,0</coordinates></Point></Placemark>
    <Placemark><styleUrl>#transit</styleUrl><name>Bahnhof Buttenheim — Heimfahrt</name>
      <description><![CDATA[<b>S1 nach Nürnberg:</b> 21:33 (an 22:19), 22:24, 01:11, 02:11.]]></description>
      <Point><coordinates>11.0136394,49.7997175,0</coordinates></Point></Placemark>
  </Folder>

  <Folder><name>ROUTEN — diesen Stern anklicken</name>
    <Placemark><styleUrl>#fork</styleUrl>
      <name>Ab 17 Uhr in Stiebarlimbach: drei Fortsetzungen</name>
      <description><![CDATA[<b>Gemeinsamer Vormittag (Marker 1 bis 6):</b> ab Nürnberg Hbf 09:41,
Umstieg Forchheim, an Kellerberg 11:03. <b>Im Ort ist vormittags nichts offen</b> (Dorfkeller erst
ab 15, Gartenkeller Sa Ruhetag, Gasthof Lieberth Sa zu) → Aufstieg 11:05–11:45 →
Kreuzberg 11:45–15:15 → Bierkeller Roppelt 15:30–17:00.
<b>Vier Brauereien, rund 4 km.</b><br>
Falls die Brauereigaststätte Rittmayer doch ab 10 offen hat (anrufen): dort 11:15–12:20 essen,
dann hoch, ab 13 Uhr am Berg.<br><br>

<b>DIE KLUGE — Empfehlung.</b> Rund 4 km zu Fuß, sechs Brauereien.<br>
Direkt in <b>Stiebarlimbach um 17:06</b> einsteigen, <b>an Buttenheim 18:25</b>. Kein Rückweg
zum Kellerberg nötig.<br>
<b>ACHTUNG: keine durchgehende Busfahrt.</b> Linie 265, Umstieg in Forchheim, dann RE 14 und S1 —
vier Fahrzeuge, 1:19 h. Wer lieber am Kellerberg einsteigt: 17:24, ebenfalls an 18:25,
kostet aber 39 Minuten Rückweg.<br><br>

<b>DIE GANZE.</b> Rund 14 km, sechs Brauereien.<br>
Ab Roppelt gegen 16:00 zurück über den Kreuzberg, 3 km zum Gasthaus Weber in Großbuchfeld
(ab 15 Uhr), dann 5 km nach Buttenheim: Bahnhof gegen 19:15, Keller nochmal 1,3–1,8 km weiter.
<b>Sonnenuntergang 19:21</b> — letztes Stück im Dunkeln.<br><br>

<b>DAS DREIECK.</b> Rund 4 km, vier Brauereien.<br>
Im Westen bleiben und direkt heim: ab Stiebarlimbach 19:06 (an Nürnberg 20:48) oder 21:08
(an 22:19); ab Kellerberg 19:28 oder 21:16 (an 22:19).<br><br>

<b>Schließzeiten (18.09. nachgeprüft):</b> Brauhaus am Kreuzberg Sa 11–22, Rittmayer-Keller 11–21,
Bierkeller Roppelt Sa 11–22, St. GeorgenBräu Sa 11–22, Löwenbräukeller Sa 11–22,
Gasthof Löwenbräu Sa 10–22. Unklar bleibt nur Lieberth's Keller am Kreuzberg
(ab 11 oder ab 14, Schließzeit unbekannt).<br>
<b>Anrufsammeltaxi</b> ab Stiebarlimbach 22:44 und 00:44, ab Kellerberg 22:52 und 00:52 —
Anmeldung mind. 1 Std. vorher unter 09191 862511, Zuschlag.]]></description>
      <Point><coordinates>10.94900,49.75400,0</coordinates></Point>
    </Placemark>
  </Folder>

  <Folder><name>Wegverlauf</name>
    <Placemark><styleUrl>#route</styleUrl>
      <name>Wanderweg — rückwärts gehen: Hallerndorf → Kreuzberg → Buttenheim</name>
      <description><![CDATA[Der echte Wegverlauf aus den offiziellen VGN-Tourdaten (Tour 32),
12 km, ca. 3 h reine Gehzeit, rund 170–180 hm aufwärts (VGN nennt 170, Kartenrouting 177). Auf 75 Punkte ausgedünnt — die gezeichnete Linie misst dadurch nur rund 10 km, weil beim Ausdünnen Kurven verloren gehen.<br>
<b>Gegen die übliche Richtung gehen</b> — sonst laufen die ersten acht Kilometer
an geschlossenen Türen vorbei.]]></description>
      <LineString><tessellate>1</tessellate><coordinates>11.01370,49.79982,0
      11.01150,49.79975,0
      11.01014,49.79840,0
      11.00972,49.79729,0
      11.00855,49.79688,0
      11.00872,49.79564,0
      11.00845,49.79503,0
      11.00758,49.79458,0
      11.00642,49.79452,0
      11.00537,49.79432,0
      11.00501,49.79367,0
      11.00461,49.79243,0
      11.00362,49.79147,0
      11.00203,49.79176,0
      11.00033,49.79150,0
      10.99926,49.79157,0
      10.99869,49.79147,0
      10.99740,49.79137,0
      10.99554,49.79120,0
      10.99311,49.79100,0
      10.99222,49.79043,0
      10.98936,49.78962,0
      10.98864,49.78938,0
      10.98773,49.78876,0
      10.98587,49.78821,0
      10.98404,49.78866,0
      10.97943,49.78997,0
      10.97653,49.79006,0
      10.97452,49.78971,0
      10.97215,49.78893,0
      10.97052,49.78869,0
      10.96878,49.78748,0
      10.96616,49.78549,0
      10.96557,49.78403,0
      10.96546,49.78278,0
      10.96544,49.78084,0
      10.96514,49.77993,0
      10.96455,49.77848,0
      10.96408,49.77593,0
      10.96511,49.77469,0
      10.96381,49.77456,0
      10.96402,49.77376,0
      10.96219,49.77307,0
      10.96224,49.76955,0
      10.95966,49.76805,0
      10.95550,49.76797,0
      10.95348,49.76732,0
      10.95201,49.76508,0
      10.95349,49.76466,0
      10.95349,49.76388,0
      10.95267,49.76157,0
      10.95367,49.76053,0
      10.95510,49.75998,0
      10.95545,49.75941,0
      10.95722,49.75868,0
      10.95908,49.75815,0
      10.96064,49.75831,0
      10.96192,49.75887,0
      10.96388,49.75933,0
      10.96433,49.75866,0
      10.96487,49.75841,0
      10.96581,49.75822,0
      10.96705,49.75771,0
      10.96739,49.75733,0
      10.96801,49.75683,0
      10.96857,49.75672,0
      10.97005,49.75646,0
      10.97120,49.75602,0
      10.97205,49.75522,0
      10.97277,49.75482,0
      10.97400,49.75526,0
      10.97524,49.75606,0
      10.97642,49.75658,0
      10.97827,49.75708,0
      10.97885,49.75740,0</coordinates></LineString></Placemark>
    <Placemark><styleUrl>#spur</styleUrl>
      <name>Abstecher zu Roppelt — 1,0 km, 14 Min (gerade Verbindung)</name>
      <description><![CDATA[<b>Gerade Verbindung, nicht der exakte Pfad.</b> Der tatsächliche Fußweg
vom Kreuzberg nach Stiebarlimbach ist 1,0 km und 14 Minuten über den Feld- und Ortsweg
(Kartenrouting) und liegt nur wenig neben dieser Linie.]]></description>
      <LineString><tessellate>1</tessellate><coordinates>
      10.95448,49.75933,0
      10.94737,49.75550,0
      </coordinates></LineString></Placemark>

    <Placemark><styleUrl>#spur</styleUrl>
      <name>Letztes Stück: Bahnhof → Buttenheimer Keller, 1,3–1,8 km</name>
      <description><![CDATA[<b>Ergänzung, nicht Teil des VGN-Tracks.</b> Der offizielle Weg endet am
Bahnhof. Die drei Buttenheimer Einkehren liegen <b>1,3 bis 1,8 km östlich</b>, quer durch den Ort:
Brauerei-Gasthof Löwenbräu in der Marktstraße, dahinter Löwenbräukeller und
St. GeorgenBräu Bierkeller. Grobe Linie über die Hauptstraße, nicht metergenau.]]></description>
      <LineString><tessellate>1</tessellate><coordinates>
      11.01370,49.79982,0
      11.01900,49.79990,0
      11.02500,49.80080,0
      11.03145,49.80170,0
      11.03341,49.79965,0
      11.03689,49.80008,0
      </coordinates></LineString></Placemark>
  </Folder>

  <Folder><name>Ohne eigenes Bier / geschlossen</name>
    <Placemark><styleUrl>#guest</styleUrl><name>Gasthaus Weber, Großbuchfeld — nur auf der Ganzen</name>
      <description><![CDATA[Kein eigenes Bier; welche Brauerei ausgeschenkt wird, ist nicht dokumentiert.<br>
<b>Sa ab 15 Uhr</b> — telefonisch bestätigt am 18.09.<br>
Einzige Einkehr zwischen Kreuzberg und Buttenheim.<br>
Großbuchfeld 11 · 09543 7471]]></description>
      <Point><coordinates>10.9653296,49.7813486,0</coordinates></Point></Placemark>
    <Placemark><styleUrl>#shut</styleUrl><name>Egloffsteiner Hof, Altendorf — GESCHLOSSEN</name>
      <description><![CDATA[<b>Am 19.09.2026 geschlossen.</b> Betriebsurlaub, ab 23.09. wieder geöffnet.
Telefonisch bestätigt am 18.09.2026.<br>
Egloffsteiner Ring 2 · 09545 313]]></description>
      <Point><coordinates>11.0101703,49.7976575,0</coordinates></Point></Placemark>
  </Folder>

  <Folder><name>Nicht am Weg — eigene Tour wert</name>
    <Placemark><styleUrl>#off</styleUrl><name>Brauerei-Gaststätte Witzgall, Schlammersdorf</name>
      <description><![CDATA[<b>Witzgall</b>, eigenes Vollbier und unfiltriertes Landbier vom Fass<br>
<b>Sa offen ab 9</b> — Ruhetag Di, Do, So und Feiertage<br>
<b>Keine Speisen</b> — eigene Brotzeit ausdrücklich erlaubt.<br>
Schlammersdorfer Str. 17 · 09545 7452]]></description>
      <Point><coordinates>11.0054514,49.7691502,0</coordinates></Point></Placemark>
    <Placemark><styleUrl>#off</styleUrl><name>Landgasthof Hotel Rittmayer, Willersdorf</name>
      <description><![CDATA[Bier wird bei der <b>Brauerei Lieberth</b> gebraut. Naturland-Betrieb
mit eigenen Karpfenteichen.<br><b>Sa 11:30–16 und ab 17</b><br>
Willersdorf 108 · 09195 94730]]></description>
      <Point><coordinates>10.9618545,49.7441003,0</coordinates></Point></Placemark>
    <Placemark><styleUrl>#off</styleUrl><name>Gartenkeller Rittmayer, Hallerndorf</name>
      <description><![CDATA[Zweiter Rittmayer-Keller im Ort.
<b>Mai–September, Mo–Fr ab 16, So ab 14 — Samstag Ruhetag.</b><br>Am Gartenkeller 2 · 0175 8381367]]></description>
      <Point><coordinates>10.9752774,49.7591458,0</coordinates></Point></Placemark>
    <Placemark><styleUrl>#off</styleUrl><name>Kellerwaldschänke Lunz, Willersdorf</name>
      <description><![CDATA[<b>Öffnungszeiten nicht belegt</b> — vorher anrufen.<br>
Willersdorf 273 · 09195 3271]]></description>
      <Point><coordinates>10.9705553,49.7377204,0</coordinates></Point></Placemark>
  </Folder>

  <Folder><name>Verkehr</name>
    <Placemark><styleUrl>#transit</styleUrl><name>Bushaltestelle Kellerberg — Ankunft 11:03</name>
      <description><![CDATA[<b>Hin:</b> ab Nürnberg Hbf 09:41, S1 mit Umstieg in Forchheim auf
den Bus 265, an 11:03.<br>
<b>Zurück ab Kellerberg:</b> stündlich zur Minute :24 bis 17:24, dann <b>19:28</b> und
<b>21:16</b> (an Nürnberg 22:19).<br>
<b>Zurück ab Stiebarlimbach</b> — meist die bessere Wahl, spart den Rückweg:
15:08, 16:08, <b>17:06</b>, <b>19:06</b> (an Nürnberg 20:48), <b>21:08</b> (an 22:19).<br>
Nach 17:24 bzw. 17:06 kommt fast zwei Stunden nichts.<br>
Danach nur Anrufsammeltaxi 22:52 und 00:52 — Anmeldung mind. 1 Std. vorher oder am Vortag:
<b>09191 862511</b>, Zuschlag fällig.]]></description>
      <Point><coordinates>10.9791500,49.7568500,0</coordinates></Point></Placemark>
  </Folder>
</Document>
</kml>
